{
    "links": {
        "self": "http://www.neowsapp.com/rest/v1/neo/3412757?api_key=iIulBulltgU6a56xZRHN4H3l9WmuAYTsLGpBGhQ2"
    },
    "id": "3412757",
    "neo_reference_id": "3412757",
    "name": "(2008 KX2)",
    "designation": "2008 KX2",
    "nasa_jpl_url": "http://ssd.jpl.nasa.gov/sbdb.cgi?sstr=3412757",
    "absolute_magnitude_h": 25.1,
    "estimated_diameter": {
        "kilometers": {
            "estimated_diameter_min": 0.0253837029,
            "estimated_diameter_max": 0.0567596853
        },
        "meters": {
            "estimated_diameter_min": 25.3837029364,
            "estimated_diameter_max": 56.7596852866
        },
        "miles": {
            "estimated_diameter_min": 0.0157726969,
            "estimated_diameter_max": 0.0352688224
        },
        "feet": {
            "estimated_diameter_min": 83.279867942,
            "estimated_diameter_max": 186.2194458756
        }
    },
    "is_potentially_hazardous_asteroid": false,
    "close_approach_data": [
        {
            "close_approach_date": "2008-06-04",
            "close_approach_date_full": "2008-Jun-04 15:43",
            "epoch_date_close_approach": 1212594180000,
            "relative_velocity": {
                "kilometers_per_second": "7.0700674219",
                "kilometers_per_hour": "25452.2427186615",
                "miles_per_hour": "15815.0338159372"
            },
            "miss_distance": {
                "astronomical": "0.0586968767",
                "lunar": "22.8330850363",
                "kilometers": "8780927.729972629",
                "miles": "5456215.4833311202"
            },
            "orbiting_body": "Earth"
        }
    ],
    "orbital_data": {
        "orbit_id": "13",
        "orbit_determination_date": "2017-04-06 09:03:23",
        "first_observation_date": "2008-05-29",
        "last_observation_date": "2008-06-06",
        "data_arc_in_days": 8,
        "observations_used": 32,
        "orbit_uncertainty": "8",
        "minimum_orbit_intersection": ".0584649",
        "jupiter_tisserand_invariant": "3.299",
        "epoch_osculation": "2454620.5",
        "eccentricity": ".5523493431187555",
        "semi_major_axis": "2.396229193596451",
        "inclination": "5.032210471380993",
        "ascending_node_longitude": "74.54440837611817",
        "orbital_period": "1354.849200122427",
        "perihelion_distance": "1.072673572551466",
        "perihelion_argument": "176.6038000924222",
        "aphelion_distance": "3.719784814641436",
        "perihelion_time": "2454619.564864714590",
        "mean_anomaly": ".248476880465501",
        "mean_motion": ".2657122283184502",
        "equinox": "J2000",
        "orbit_class": {
            "orbit_class_type": "AMO",
            "orbit_class_description": "Near-Earth asteroid orbits similar to that of 1221 Amor",
            "orbit_class_range": "1.017 AU < q (perihelion) < 1.3 AU"
        }
    },
    "is_sentry_object": false
}